NORAD_CAT_ID,OBJECT_NAME,OBJECT_TYPE,EPOCH,MEAN_MOTION,ECCENTRICITY,INCLINATION,RA_OF_ASC_NODE,ARG_OF_PERICENTER,MEAN_ANOMALY,BSTAR,MEAN_MOTION_DOT,MEAN_MOTION_DDOT,TLE_LINE0,TLE_LINE1,TLE_LINE2,SEMIMAJOR_AXIS,PERIOD,APOGEE,PERIGEE,DECAYED
53031.0,STARLINK-4137,PAYLOAD,2023-11-27 04:31:45,15.0883972,0.0001547,53.2153,215.8481,118.3436,241.7712,5.381e-05,5.68e-06,0.0,0 STARLINK-4137,1 53031U 22076AX  23331.18872454  .00000568  00000-0  53810-4 0  9990,2 53031  53.2153 215.8481 0001547 118.3436 241.7712 15.08839720 77769,6917.881,95.438,540.816,538.676,0.0
53031.0,STARLINK-4137,PAYLOAD,2023-11-27 22:01:01,15.0882694,0.0001494,53.2151,212.5808,97.9034,262.2128,0.00028507,4.25e-05,0.0,0 STARLINK-4137,1 53031U 22076AX  23331.91737283  .00004250  00000-0  28507-3 0  9997,2 53031  53.2151 212.5808 0001494  97.9034 262.2128 15.08826940 77401,6917.92,95.438,540.819,538.752,0.0
53031.0,STARLINK-4137,PAYLOAD,2023-11-28 01:11:47,15.08834817,0.0001641,53.2155,211.9859,113.3651,246.7514,0.00060501,9.352e-05,0.0,0 STARLINK-4137,1 53031U 22076AX  23332.04985173  .00009352  00000-0  60501-3 0  9993,2 53031  53.2155 211.9859 0001641 113.3651 246.7514 15.08834817 77897,6917.896,95.438,540.896,538.626,0.0
53031.0,STARLINK-4137,PAYLOAD,2023-11-28 21:51:47,15.08848982,0.0001791,53.2139,208.1188,133.3853,226.7288,0.00047017,7.204e-05,0.0,0 STARLINK-4137,1 53031U 22076AX  23332.91096765  .00007204  00000-0  47017-3 0  9990,2 53031  53.2139 208.1188 0001791 133.3853 226.7288 15.08848982 77551,6917.853,95.437,540.957,538.479,0.0
53031.0,STARLINK-4137,PAYLOAD,2023-11-29 01:02:33,15.08854611,0.0001371,53.214,207.5259,111.638,248.4758,0.00068791,0.00010681,0.0,0 STARLINK-4137,1 53031U 22076AX  23333.04344803  .00010681  00000-0  68791-3 0  9999,2 53031  53.2140 207.5259 0001371 111.6380 248.4758 15.08854611 77574,6917.836,95.437,540.649,538.752,0.0
53031.0,STARLINK-4137,PAYLOAD,2023-11-29 20:07:11,15.08843026,0.0001545,53.2146,203.9549,123.7632,236.3507,0.00028077,4.184e-05,0.0,0 STARLINK-4137,1 53031U 22076AX  23333.83832977  .00004184  00000-0  28077-3 0  9994,2 53031  53.2146 203.9549 0001545 123.7632 236.3507 15.08843026 78161,6917.871,95.437,540.805,538.667,0.0
53031.0,STARLINK-4137,PAYLOAD,2023-12-01 00:44:08,15.08840438,0.0001726,53.2149,198.5971,130.7501,229.3642,0.00061717,9.548e-05,0.0,0 STARLINK-4137,1 53031U 22076AX  23335.03065060  .00009548  00000-0  61717-3 0  9996,2 53031  53.2149 198.5971 0001726 130.7501 229.3642 15.08840438 78342,6917.879,95.438,540.938,538.55,0.0
53031.0,STARLINK-4137,PAYLOAD,2023-12-01 19:48:44,15.08858077,0.0001833,53.2144,195.0271,128.4957,231.62,-0.0002553,-4.351e-05,0.0,0 STARLINK-4137,1 53031U 22076AX  23335.82551001 -.00004351  00000-0 -25530-3 0  9990,2 53031  53.2144 195.0271 0001833 128.4957 231.6200 15.08858077 78467,6917.825,95.436,540.958,538.422,0.0
53031.0,STARLINK-4137,PAYLOAD,2023-12-01 21:24:07,15.08848619,0.0001298,53.2141,194.7298,94.1812,265.9328,-0.0001383,-2.489e-05,0.0,0 STARLINK-4137,1 53031U 22076AX  23335.89175449 -.00002489  00000-0 -13830-3 0  9995,2 53031  53.2141 194.7298 0001298  94.1812 265.9328 15.08848619 78005,6917.854,95.437,540.617,538.821,0.0
53031.0,STARLINK-4137,PAYLOAD,2023-12-02 00:34:53,15.08845922,0.0001458,53.215,194.1409,107.153,252.9621,-0.00022147,-3.812e-05,0.0,0 STARLINK-4137,1 53031U 22076AX  23336.02423385 -.00003812  00000-0 -22147-3 0  9998,2 53031  53.2150 194.1409 0001458 107.1530 252.9621 15.08845922 78492,6917.862,95.437,540.736,538.719,0.0
53031.0,STARLINK-4137,PAYLOAD,2023-12-02 19:39:32,15.08834213,0.0001512,53.2153,190.5705,103.1421,256.974,-0.00024529,-4.189e-05,0.0,0 STARLINK-4137,1 53031U 22076AX  23336.81912095 -.00004189  00000-0 -24529-3 0  9990,2 53031  53.2153 190.5705 0001512 103.1421 256.9740 15.08834213 78611,6917.898,95.438,540.809,538.717,0.0
53031.0,STARLINK-4137,PAYLOAD,2023-12-03 14:44:10,15.0881894,0.00015,53.2151,187.0031,104.1248,255.9911,-3.9678e-06,-3.51e-06,0.0,0 STARLINK-4137,1 53031U 22076AX  23337.61401515 -.00000351  00000-0 -39678-5 0  9999,2 53031  53.2151 187.0031 0001500 104.1248 255.9911 15.08818940 78266,6917.945,95.439,540.847,538.772,0.0
53031.0,STARLINK-4137,PAYLOAD,2023-12-03 19:30:20,15.08818384,0.0001428,53.216,186.1116,103.3029,256.8123,5.9369e-06,-1.93e-06,0.0,0 STARLINK-4137,1 53031U 22076AX  23337.81274040 -.00000193  00000-0  59369-5 0  9994,2 53031  53.2160 186.1116 0001428 103.3029 256.8123 15.08818384 78769,6917.946,95.439,540.799,538.824,0.0
53031.0,STARLINK-4137,PAYLOAD,2023-12-04 00:16:31,15.0878729,0.0001569,53.2159,185.2204,97.4925,262.6246,0.0003659,5.532e-05,0.0,0 STARLINK-4137,1 53031U 22076AX  23338.01147225  .00005532  00000-0  36590-3 0  9991,2 53031  53.2159 185.2204 0001569  97.4925 262.6246 15.08787290 78794,6918.042,95.441,540.992,538.821,0.0
53031.0,STARLINK-4137,PAYLOAD,2023-12-04 12:59:35,15.0881983,0.0001331,53.2156,182.8426,95.3022,264.8122,6.9355e-05,8.15e-06,0.0,0 STARLINK-4137,1 53031U 22076AX  23338.54138737  .00000815  00000-0  69355-4 0  9992,2 53031  53.2156 182.8426 0001331  95.3022 264.8122 15.08819830 78403,6917.942,95.439,540.728,538.886,0.0
53031.0,STARLINK-4137,PAYLOAD,2023-12-04 16:10:22,15.08823686,0.0001335,53.2153,182.2488,91.3418,268.7727,8.2773e-05,1.029e-05,0.0,0 STARLINK-4137,1 53031U 22076AX  23338.67386620  .00001029  00000-0  82773-4 0  9999,2 53031  53.2153 182.2488 0001335  91.3418 268.7727 15.08823686 78892,6917.93,95.439,540.719,538.872,0.0
53031.0,STARLINK-4137,PAYLOAD,2023-12-06 12:41:09,15.08838906,0.0001322,53.2152,173.9222,91.6124,268.502,0.00014218,1.976e-05,0.0,0 STARLINK-4137,1 53031U 22076AX  23340.52858439  .00001976  00000-0  14218-3 0  9997,2 53031  53.2152 173.9222 0001322  91.6124 268.5020 15.08838906 78702,6917.884,95.438,540.663,538.834,0.0
53031.0,STARLINK-4137,PAYLOAD,2023-12-06 22:13:28,15.08844966,0.0001336,53.2151,172.1381,90.7038,269.4108,0.00017255,2.46e-05,0.0,0 STARLINK-4137,1 53031U 22076AX  23340.92601911  .00002460  00000-0  17255-3 0  9995,2 53031  53.2151 172.1381 0001336  90.7038 269.4108 15.08844966 78763,6917.865,95.437,540.654,538.806,0.0
53031.0,STARLINK-4137,PAYLOAD,2023-12-08 12:22:43,15.08839886,0.0001345,53.2152,165.0017,82.6379,277.4766,5.3377e-05,5.62e-06,0.0,0 STARLINK-4137,1 53031U 22076AX  23342.51578190  .00000562  00000-0  53377-4 0  9991,2 53031  53.2152 165.0017 0001345  82.6379 277.4766 15.08839886 79472,6917.881,95.438,540.676,538.815,0.0
53031.0,STARLINK-4137,PAYLOAD,2023-12-08 15:33:29,15.08839587,0.0001293,53.215,164.4074,81.0504,279.0635,4.7723e-05,4.72e-06,0.0,0 STARLINK-4137,1 53031U 22076AX  23342.64826201  .00000472  00000-0  47723-4 0  9992,2 53031  53.2150 164.4074 0001293  81.0504 279.0635 15.08839587 79023,6917.882,95.438,540.641,538.852,0.0
53031.0,STARLINK-4137,PAYLOAD,2023-12-09 15:24:16,15.0884219,0.0001362,53.2151,159.9477,71.2382,288.8758,3.5292e-05,2.74e-06,0.0,0 STARLINK-4137,1 53031U 22076AX  23343.64185830  .00000274  00000-0  35292-4 0  9997,2 53031  53.2151 159.9477 0001362  71.2382 288.8758 15.08842190 79648,6917.874,95.437,540.681,538.796,0.0
53031.0,STARLINK-4137,PAYLOAD,2023-12-09 21:45:48,15.08842184,0.0001495,53.2145,158.7552,102.0181,258.0979,2.3111e-05,8e-07,0.0,0 STARLINK-4137,1 53031U 22076AX  23343.90681631  .00000080  00000-0  23111-4 0  9998,2 53031  53.2145 158.7552 0001495 102.0181 258.0979 15.08842184 79219,6917.874,95.437,540.773,538.704,0.0
53031.0,STARLINK-4137,PAYLOAD,2023-12-10 16:50:26,15.08838451,0.0001569,53.2156,155.1843,115.2227,244.8928,1.6377e-05,-2.7e-07,0.0,0 STARLINK-4137,1 53031U 22076AX  23344.70169704 -.00000027  00000-0  16377-4 0  9997,2 53031  53.2156 155.1843 0001569 115.2227 244.8928 15.08838451 79808,6917.885,95.438,540.836,538.665,0.0
53031.0,STARLINK-4137,PAYLOAD,2023-12-11 18:16:36,15.08839025,0.0001373,53.2162,150.4272,97.9878,262.127,3.9877e-05,3.47e-06,0.0,0 STARLINK-4137,1 53031U 22076AX  23345.76153772  .00000347  00000-0  39877-4 0  9996,2 53031  53.2162 150.4272 0001373  97.9878 262.1270 15.08839025 79968,6917.883,95.438,540.698,538.799,0.0
53031.0,STARLINK-4137,PAYLOAD,2023-12-12 16:32:01,15.08834411,0.000146,53.2168,146.2703,106.6456,253.4696,2.3798e-05,9.1e-07,0.0,0 STARLINK-4137,1 53031U 22076AX  23346.68890373  .00000091  00000-0  23798-4 0  9994,2 53031  53.2168 146.2703 0001460 106.6456 253.4696 15.08834411 80100,6917.897,95.438,540.772,538.752,0.0
53031.0,STARLINK-4137,PAYLOAD,2023-12-13 14:47:23,15.08848051,0.0001641,53.2166,142.1033,121.3091,238.8062,0.00022521,3.299e-05,0.0,0 STARLINK-4137,1 53031U 22076AX  23347.61624364  .00003299  00000-0  22521-3 0  9998,2 53031  53.2166 142.1033 0001641 121.3091 238.8062 15.08848051 79779,6917.856,95.437,540.856,538.586,0.0
53031.0,STARLINK-4137,PAYLOAD,2023-12-13 17:58:11,15.0883212,0.0001426,53.2169,141.51,84.0946,276.0208,-2.691e-05,-7.16e-06,0.0,0 STARLINK-4137,1 53031U 22076AX  23347.74874174 -.00000716  00000-0 -26910-4 0  9998,2 53031  53.2169 141.5100 0001426  84.0946 276.0208 15.08832120 80267,6917.904,95.438,540.756,538.783,0.0
53031.0,STARLINK-4137,PAYLOAD,2023-12-14 14:38:12,15.0883408,0.0001402,53.217,137.6401,87.091,273.0242,-2.4859e-05,-6.83e-06,0.0,0 STARLINK-4137,1 53031U 22076AX  23348.60986315 -.00000683  00000-0 -24859-4 0  9998,2 53031  53.2170 137.6401 0001402  87.0910 273.0242 15.08834080 79920,6917.898,95.438,540.733,538.794,0.0
53031.0,STARLINK-4137,PAYLOAD,2023-12-14 17:48:58,15.08837806,0.0001506,53.217,137.0459,108.5514,251.5642,-9.7049e-05,-1.832e-05,0.0,0 STARLINK-4137,1 53031U 22076AX  23348.74234302 -.00001832  00000-0 -97049-4 0  9993,2 53031  53.2170 137.0459 0001506 108.5514 251.5642 15.08837806 79947,6917.887,95.438,540.794,538.71,0.0
53031.0,STARLINK-4137,PAYLOAD,2023-12-15 14:28:59,15.0882975,0.0001511,53.2172,133.1799,73.0203,287.0955,6.6658e-05,7.73e-06,0.0,0 STARLINK-4137,1 53031U 22076AX  23349.60346517  .00000773  00000-0  66658-4 0  9994,2 53031  53.2172 133.1799 0001511  73.0203 287.0955 15.08829750 80076,6917.912,95.438,540.822,538.731,0.0
